OBJECT_NAME,OBJECT_ID,EPOCH,MEAN_MOTION,ECCENTRICITY,INCLINATION,RA_OF_ASC_NODE,ARG_OF_PERICENTER,MEAN_ANOMALY,EPHEMERIS_TYPE,CLASSIFICATION_TYPE,NORAD_CAT_ID,ELEMENT_SET_NO,REV_AT_EPOCH,BSTAR,MEAN_MOTION_DOT,MEAN_MOTION_DDOT
ZHUQUE-2E R/B,2026-105A,2026-06-11T14:11:33.101376,15.15885757,.04531156,88.9711,195.0305,319.8187,37.0347,0,U,69095,999,430,.34004797E-3,.13915E-2,-.647682E-6
2026-106A,2026-106A,2026-06-11T20:23:00.835008,15.11127603,.0014478,97.5095,245.0296,179.3205,180.8047,0,U,69097,999,417,.38415E-3,.6391E-4,0
2026-106B,2026-106B,2026-06-11T20:40:54.778368,15.09634027,.0014937,97.5076,245.0074,174.7414,185.3975,0,U,69098,999,417,.21296E-3,.337E-4,0
2026-106C,2026-106C,2026-06-11T20:21:57.440736,15.11169800,.0014259,97.5098,245.0319,180.1339,179.9889,0,U,69099,999,417,.39095E-3,.6512E-4,0
2026-106D,2026-106D,2026-06-11T20:18:42.163776,15.11259136,.0013942,97.5075,245.0266,182.0677,178.0497,0,U,69100,999,417,.82748E-4,.133E-4,0
2026-106E,2026-106E,2026-06-11T12:14:50.426304,15.11419052,.0016453,97.5075,244.7089,184.8563,175.2511,0,U,69101,999,412,.35164E-3,.5896E-4,0
DRAGON CRS-34,2026-107A,2026-06-11T20:03:08.872704,15.49179015,.0004934,51.6334,326.5798,175.2433,184.8603,0,U,69103,999,57103,.13937E-3,.7284E-4,0
QIANFAN-145,2026-108A,2026-06-11T13:15:36.655776,14.08668699,.0013092,89.0117,22.8485,110.6414,249.6175,0,U,69104,999,354,-.13214E+1,-.2103356E-1,0
QIANFAN-146,2026-108B,2026-06-11T16:16:12.952416,14.14053480,.0016906,89.0105,22.8125,134.7181,225.5385,0,U,69105,999,357,-.11573E+1,-.2038654E-1,0
QIANFAN-147,2026-108C,2026-06-11T16:13:12.019584,14.09839905,.0019234,89.0110,22.8301,116.2125,244.1039,0,U,69106,999,356,-.11312E+1,-.1857899E-1,0
QIANFAN-148,2026-108D,2026-06-11T14:22:47.330688,14.08809579,.0015164,89.0103,22.8365,116.3438,243.9305,0,U,69107,999,355,-.12422E+1,-.1991222E-1,0
QIANFAN-149,2026-108E,2026-06-11T17:43:06.857184,14.09059581,.0018708,89.0111,22.8212,113.8729,246.4417,0,U,69108,999,357,-.13008E+1,-.208822E-1,0
QIANFAN-150,2026-108F,2026-06-11T15:43:46.934976,14.10921366,.0014169,89.0111,22.8282,114.2996,245.9670,0,U,69109,999,356,-.12447E+1,-.2067212E-1,0
QIANFAN-151,2026-108G,2026-06-11T12:12:02.984832,14.09939876,.0015248,89.0110,22.8421,110.9784,249.3033,0,U,69110,999,354,-.12517E+1,-.2044087E-1,0
QIANFAN-152,2026-108H,2026-06-11T17:06:12.846816,14.11363982,.0018014,89.0107,22.8178,113.8562,246.4514,0,U,69111,999,357,-.1223E+1,-.2050118E-1,0
QIANFAN-153,2026-108J,2026-06-11T15:16:54.160608,14.11357907,.0013203,89.0114,22.8254,121.0359,239.2124,0,U,69112,999,356,-.12427E+1,-.2079243E-1,0
QIANFAN-154,2026-108K,2026-06-11T10:00:03.808800,14.12061381,.0016799,89.0114,22.8466,116.5076,243.7835,0,U,69113,999,353,-.12182E+1,-.2066713E-1,0
QIANFAN-155,2026-108L,2026-06-11T15:12:17.366112,14.10843252,.001457,89.0109,22.8243,110.6881,249.5868,0,U,69114,999,356,-.12433E+1,-.2062378E-1,0
QIANFAN-156,2026-108M,2026-06-11T11:30:57.877920,14.13346721,.0016598,89.0111,22.8391,133.2892,226.9682,0,U,69115,999,354,-.12093E+1,-.2098012E-1,0
QIANFAN-157,2026-108N,2026-06-11T14:12:07.245792,14.14545117,.0018895,89.0106,22.8183,147.2691,212.9671,0,U,69116,999,356,-.11839E+1,-.2100431E-1,0
QIANFAN-158,2026-108P,2026-06-11T16:22:14.604672,14.12830919,.0015588,89.0106,22.8138,125.9559,234.3075,0,U,69117,999,357,-.11822E+1,-.2036045E-1,0
QIANFAN-159,2026-108Q,2026-06-11T16:13:46.655616,14.14001851,.0016716,89.0099,22.8122,135.8916,224.3607,0,U,69118,999,357,-.11643E+1,-.2048356E-1,0
QIANFAN-160,2026-108R,2026-06-11T19:31:05.537856,14.13781672,.0015666,89.0111,22.7957,132.6907,227.5602,0,U,69119,999,359,-.1157E+1,-.2028437E-1,0
QIANFAN-161,2026-108S,2026-06-11T16:00:13.951296,14.16138175,.002038,89.0110,22.8114,148.3590,211.8828,0,U,69120,999,357,-.11484E+1,-.2098965E-1,0
QIANFAN-162,2026-108T,2026-06-11T14:13:44.462208,14.15588099,.001929,89.0109,22.8185,151.5204,208.7042,0,U,69121,999,356,-.11654E+1,-.2107387E-1,0
SMILE,2026-109A,2026-05-24T15:40:35.120928,14.57062785,.00091232,70.0007,229.2745,259.5159,100.4951,0,U,69123,999,80,-.42378883E-3,-.1976E-4,0
STARLINK-37726,2026-110A,2026-06-11T19:22:43.433760,15.49216426,.0001491,97.2849,358.9767,85.9078,274.2344,0,U,69124,999,476,.52364E-3,.28519E-3,0
STARLINK-37722,2026-110B,2026-06-11T20:00:01.999008,15.49154532,.0001437,97.2844,359.1646,71.7371,91.8059,0,U,69125,999,484,.15107E-2,.8284E-3,0
